[{"OBJECT_NAME":"ONEWEB-0629","OBJECT_ID":"2023-004AG","EPOCH":"2026-03-25T14:00:33.027840","MEAN_MOTION":13.17649182,"ECCENTRICITY":0.00016154,"INCLINATION":87.9171,"RA_OF_ASC_NODE":22.4734,"ARG_OF_PERICENTER":87.3678,"MEAN_ANOMALY":272.7638,"EPHEMERIS_TYPE":0,"CLASSIFICATION_TYPE":"U","NORAD_CAT_ID":55170,"ELEMENT_SET_NO":999,"REV_AT_EPOCH":15657,"BSTAR":9.6002251e-5,"MEAN_MOTION_DOT":5.0e-7,"MEAN_MOTION_DDOT":0},{"OBJECT_NAME":"ONEWEB-0631","OBJECT_ID":"2023-004AH","EPOCH":"2026-03-25T11:38:44.276352","MEAN_MOTION":13.18688022,"ECCENTRICITY":0.00020525,"INCLINATION":87.9247,"RA_OF_ASC_NODE":352.066,"ARG_OF_PERICENTER":65.8715,"MEAN_ANOMALY":294.2631,"EPHEMERIS_TYPE":0,"CLASSIFICATION_TYPE":"U","NORAD_CAT_ID":55171,"ELEMENT_SET_NO":999,"REV_AT_EPOCH":15864,"BSTAR":6.3589961e-5,"MEAN_MOTION_DOT":3.8e-7,"MEAN_MOTION_DDOT":0},{"OBJECT_NAME":"ONEWEB-0709","OBJECT_ID":"2023-004AJ","EPOCH":"2026-03-25T13:59:39.006240","MEAN_MOTION":13.11416464,"ECCENTRICITY":0.00027099,"INCLINATION":87.8889,"RA_OF_ASC_NODE":37.7006,"ARG_OF_PERICENTER":73.4945,"MEAN_ANOMALY":286.6481,"EPHEMERIS_TYPE":0,"CLASSIFICATION_TYPE":"U","NORAD_CAT_ID":55172,"ELEMENT_SET_NO":999,"REV_AT_EPOCH":15491,"BSTAR":-0.0014598772,"MEAN_MOTION_DOT":-5.05e-6,"MEAN_MOTION_DDOT":0},{"OBJECT_NAME":"ONEWEB-0710","OBJECT_ID":"2023-004AK","EPOCH":"2026-03-25T12:31:51.271680","MEAN_MOTION":13.17649733,"ECCENTRICITY":0.00017366,"INCLINATION":87.9172,"RA_OF_ASC_NODE":22.4809,"ARG_OF_PERICENTER":74.1042,"MEAN_ANOMALY":286.0281,"EPHEMERIS_TYPE":0,"CLASSIFICATION_TYPE":"U","NORAD_CAT_ID":55173,"ELEMENT_SET_NO":999,"REV_AT_EPOCH":15656,"BSTAR":0.0001045766,"MEAN_MOTION_DOT":5.3e-7,"MEAN_MOTION_DDOT":0},{"OBJECT_NAME":"ONEWEB-0711","OBJECT_ID":"2023-004AL","EPOCH":"2026-03-25T13:18:08.557344","MEAN_MOTION":13.11416886,"ECCENTRICITY":0.00013727,"INCLINATION":87.8893,"RA_OF_ASC_NODE":37.6899,"ARG_OF_PERICENTER":61.9587,"MEAN_ANOMALY":298.1679,"EPHEMERIS_TYPE":0,"CLASSIFICATION_TYPE":"U","NORAD_CAT_ID":55174,"ELEMENT_SET_NO":999,"REV_AT_EPOCH":15487,"BSTAR":0.0010299971,"MEAN_MOTION_DOT":3.78e-6,"MEAN_MOTION_DDOT":0},{"OBJECT_NAME":"ONEWEB-0713","OBJECT_ID":"2023-004AM","EPOCH":"2026-03-25T10:05:15.375840","MEAN_MOTION":13.11415762,"ECCENTRICITY":0.00015878,"INCLINATION":87.8898,"RA_OF_ASC_NODE":37.7163,"ARG_OF_PERICENTER":71.7311,"MEAN_ANOMALY":288.399,"EPHEMERIS_TYPE":0,"CLASSIFICATION_TYPE":"U","NORAD_CAT_ID":55175,"ELEMENT_SET_NO":999,"REV_AT_EPOCH":15484,"BSTAR":-0.00067087632,"MEAN_MOTION_DOT":-2.25e-6,"MEAN_MOTION_DDOT":0},{"OBJECT_NAME":"ONEWEB-0715","OBJECT_ID":"2023-004AN","EPOCH":"2026-03-25T13:37:40.200096","MEAN_MOTION":13.11415998,"ECCENTRICITY":0.00023817,"INCLINATION":87.8893,"RA_OF_ASC_NODE":37.6865,"ARG_OF_PERICENTER":66.4083,"MEAN_ANOMALY":293.7295,"EPHEMERIS_TYPE":0,"CLASSIFICATION_TYPE":"U","NORAD_CAT_ID":55176,"ELEMENT_SET_NO":999,"REV_AT_EPOCH":15490,"BSTAR":0.00010906321,"MEAN_MOTION_DOT":5.1e-7,"MEAN_MOTION_DDOT":0},{"OBJECT_NAME":"ONEWEB-0716","OBJECT_ID":"2023-004AP","EPOCH":"2026-03-25T14:11:29.999616","MEAN_MOTION":13.17650391,"ECCENTRICITY":0.0001936,"INCLINATION":87.9174,"RA_OF_ASC_NODE":22.4678,"ARG_OF_PERICENTER":85.2931,"MEAN_ANOMALY":274.8422,"EPHEMERIS_TYPE":0,"CLASSIFICATION_TYPE":"U","NORAD_CAT_ID":55177,"ELEMENT_SET_NO":999,"REV_AT_EPOCH":15657,"BSTAR":8.4043396e-5,"MEAN_MOTION_DOT":4.6e-7,"MEAN_MOTION_DDOT":0},{"OBJECT_NAME":"ONEWEB-0717","OBJECT_ID":"2023-004AQ","EPOCH":"2026-03-25T13:47:11.462208","MEAN_MOTION":13.17650081,"ECCENTRICITY":0.00014932,"INCLINATION":87.9181,"RA_OF_ASC_NODE":22.452,"ARG_OF_PERICENTER":58.742,"MEAN_ANOMALY":301.3857,"EPHEMERIS_TYPE":0,"CLASSIFICATION_TYPE":"U","NORAD_CAT_ID":55178,"ELEMENT_SET_NO":999,"REV_AT_EPOCH":15662,"BSTAR":7.5594554e-5,"MEAN_MOTION_DOT":4.2e-7,"MEAN_MOTION_DDOT":0},{"OBJECT_NAME":"ONEWEB-0719","OBJECT_ID":"2023-004AR","EPOCH":"2026-03-25T14:01:46.034976","MEAN_MOTION":13.17649505,"ECCENTRICITY":0.00017926,"INCLINATION":87.9181,"RA_OF_ASC_NODE":22.4314,"ARG_OF_PERICENTER":84.6743,"MEAN_ANOMALY":275.4593,"EPHEMERIS_TYPE":0,"CLASSIFICATION_TYPE":"U","NORAD_CAT_ID":55179,"ELEMENT_SET_NO":999,"REV_AT_EPOCH":15657,"BSTAR":0.00022243629,"MEAN_MOTION_DOT":9.9e-7,"MEAN_MOTION_DDOT":0},{"OBJECT_NAME":"ONEWEB-0530","OBJECT_ID":"2023-029A","EPOCH":"2026-03-25T07:16:57.745632","MEAN_MOTION":13.20771257,"ECCENTRICITY":0.00012037,"INCLINATION":87.9137,"RA_OF_ASC_NODE":291.227,"ARG_OF_PERICENTER":86.7848,"MEAN_ANOMALY":273.3423,"EPHEMERIS_TYPE":0,"CLASSIFICATION_TYPE":"U","NORAD_CAT_ID":55796,"ELEMENT_SET_NO":999,"REV_AT_EPOCH":15007,"BSTAR":7.9781991e-5,"MEAN_MOTION_DOT":4.5e-7,"MEAN_MOTION_DDOT":0},{"OBJECT_NAME":"ONEWEB-0534","OBJECT_ID":"2023-029B","EPOCH":"2026-03-25T12:26:03.188544","MEAN_MOTION":13.20771481,"ECCENTRICITY":0.00017685,"INCLINATION":87.914,"RA_OF_ASC_NODE":291.1824,"ARG_OF_PERICENTER":91.8945,"MEAN_ANOMALY":268.2391,"EPHEMERIS_TYPE":0,"CLASSIFICATION_TYPE":"U","NORAD_CAT_ID":55797,"ELEMENT_SET_NO":999,"REV_AT_EPOCH":15010,"BSTAR":9.2184903e-5,"MEAN_MOTION_DOT":5.0e-7,"MEAN_MOTION_DDOT":0},{"OBJECT_NAME":"ONEWEB-0556","OBJECT_ID":"2023-029C","EPOCH":"2026-03-25T01:40:36.237504","MEAN_MOTION":13.20771983,"ECCENTRICITY":0.00017113,"INCLINATION":87.9138,"RA_OF_ASC_NODE":291.2742,"ARG_OF_PERICENTER":120.4195,"MEAN_ANOMALY":239.7108,"EPHEMERIS_TYPE":0,"CLASSIFICATION_TYPE":"U","NORAD_CAT_ID":55798,"ELEMENT_SET_NO":999,"REV_AT_EPOCH":15004,"BSTAR":9.0463489e-5,"MEAN_MOTION_DOT":5.0e-7,"MEAN_MOTION_DDOT":0},{"OBJECT_NAME":"ONEWEB-0562","OBJECT_ID":"2023-029D","EPOCH":"2026-03-25T14:06:02.900448","MEAN_MOTION":13.20771633,"ECCENTRICITY":9.494e-5,"INCLINATION":87.9139,"RA_OF_ASC_NODE":291.151,"ARG_OF_PERICENTER":107.7452,"MEAN_ANOMALY":252.3785,"EPHEMERIS_TYPE":0,"CLASSIFICATION_TYPE":"U","NORAD_CAT_ID":55799,"ELEMENT_SET_NO":999,"REV_AT_EPOCH":15011,"BSTAR":0.00021539647,"MEAN_MOTION_DOT":1.01e-6,"MEAN_MOTION_DDOT":0},{"OBJECT_NAME":"ONEWEB-0563","OBJECT_ID":"2023-029E","EPOCH":"2026-03-25T12:07:51.359520","MEAN_MOTION":13.20769737,"ECCENTRICITY":0.00018098,"INCLINATION":87.9138,"RA_OF_ASC_NODE":291.1978,"ARG_OF_PERICENTER":95.6088,"MEAN_ANOMALY":264.5252,"EPHEMERIS_TYPE":0,"CLASSIFICATION_TYPE":"U","NORAD_CAT_ID":55800,"ELEMENT_SET_NO":999,"REV_AT_EPOCH":15009,"BSTAR":0.00011444531,"MEAN_MOTION_DOT":6.0e-7,"MEAN_MOTION_DDOT":0},{"OBJECT_NAME":"ONEWEB-0564","OBJECT_ID":"2023-029F","EPOCH":"2026-03-25T11:58:46.806240","MEAN_MOTION":13.20771142,"ECCENTRICITY":0.00013046,"INCLINATION":87.914,"RA_OF_ASC_NODE":291.1714,"ARG_OF_PERICENTER":89.9328,"MEAN_ANOMALY":270.1955,"EPHEMERIS_TYPE":0,"CLASSIFICATION_TYPE":"U","NORAD_CAT_ID":55801,"ELEMENT_SET_NO":999,"REV_AT_EPOCH":15010,"BSTAR":0.00010974341,"MEAN_MOTION_DOT":5.8e-7,"MEAN_MOTION_DDOT":0},{"OBJECT_NAME":"ONEWEB-0638","OBJECT_ID":"2023-029G","EPOCH":"2026-03-25T08:36:59.166432","MEAN_MOTION":13.14504944,"ECCENTRICITY":0.0001393,"INCLINATION":87.8947,"RA_OF_ASC_NODE":306.4912,"ARG_OF_PERICENTER":105.0566,"MEAN_ANOMALY":255.0718,"EPHEMERIS_TYPE":0,"CLASSIFICATION_TYPE":"U","NORAD_CAT_ID":55802,"ELEMENT_SET_NO":999,"REV_AT_EPOCH":14838,"BSTAR":0.00020557599,"MEAN_MOTION_DOT":8.9e-7,"MEAN_MOTION_DDOT":0},{"OBJECT_NAME":"ONEWEB-0639","OBJECT_ID":"2023-029H","EPOCH":"2026-03-25T15:12:09.743040","MEAN_MOTION":13.19726022,"ECCENTRICITY":0.00027046,"INCLINATION":87.9202,"RA_OF_ASC_NODE":321.6331,"ARG_OF_PERICENTER":91.5614,"MEAN_ANOMALY":268.5829,"EPHEMERIS_TYPE":0,"CLASSIFICATION_TYPE":"U","NORAD_CAT_ID":55803,"ELEMENT_SET_NO":999,"REV_AT_EPOCH":14788,"BSTAR":-5.9358678e-5,"MEAN_MOTION_DOT":-1.1e-7,"MEAN_MOTION_DDOT":0},{"OBJECT_NAME":"ONEWEB-0640","OBJECT_ID":"2023-029J","EPOCH":"2026-03-25T08:50:43.878624","MEAN_MOTION":13.14504069,"ECCENTRICITY":0.00017747,"INCLINATION":87.8947,"RA_OF_ASC_NODE":306.4799,"ARG_OF_PERICENTER":110.0805,"MEAN_ANOMALY":250.0516,"EPHEMERIS_TYPE":0,"CLASSIFICATION_TYPE":"U","NORAD_CAT_ID":55804,"ELEMENT_SET_NO":999,"REV_AT_EPOCH":14840,"BSTAR":0.00070349614,"MEAN_MOTION_DOT":2.74e-6,"MEAN_MOTION_DDOT":0},{"OBJECT_NAME":"ONEWEB-0641","OBJECT_ID":"2023-029K","EPOCH":"2026-03-25T15:05:19.899456","MEAN_MOTION":13.197255,"ECCENTRICITY":0.00018758,"INCLINATION":87.9203,"RA_OF_ASC_NODE":321.621,"ARG_OF_PERICENTER":82.9915,"MEAN_ANOMALY":277.1431,"EPHEMERIS_TYPE":0,"CLASSIFICATION_TYPE":"U","NORAD_CAT_ID":55805,"ELEMENT_SET_NO":999,"REV_AT_EPOCH":14789,"BSTAR":-5.8558143e-5,"MEAN_MOTION_DOT":-1.1e-7,"MEAN_MOTION_DDOT":0},{"OBJECT_NAME":"ONEWEB-0642","OBJECT_ID":"2023-029L","EPOCH":"2026-03-25T14:58:30.990720","MEAN_MOTION":13.19725101,"ECCENTRICITY":0.00025792,"INCLINATION":87.9205,"RA_OF_ASC_NODE":321.6361,"ARG_OF_PERICENTER":84.3537,"MEAN_ANOMALY":275.789,"EPHEMERIS_TYPE":0,"CLASSIFICATION_TYPE":"U","NORAD_CAT_ID":55806,"ELEMENT_SET_NO":999,"REV_AT_EPOCH":14788,"BSTAR":-9.7211544e-5,"MEAN_MOTION_DOT":-2.6e-7,"MEAN_MOTION_DDOT":0},{"OBJECT_NAME":"ONEWEB-0643","OBJECT_ID":"2023-029M","EPOCH":"2026-03-25T13:36:08.700768","MEAN_MOTION":13.14503905,"ECCENTRICITY":0.00023707,"INCLINATION":87.8951,"RA_OF_ASC_NODE":306.4274,"ARG_OF_PERICENTER":80.3156,"MEAN_ANOMALY":279.8242,"EPHEMERIS_TYPE":0,"CLASSIFICATION_TYPE":"U","NORAD_CAT_ID":55807,"ELEMENT_SET_NO":999,"REV_AT_EPOCH":14840,"BSTAR":-0.0004150601,"MEAN_MOTION_DOT":-1.41e-6,"MEAN_MOTION_DDOT":0},{"OBJECT_NAME":"ONEWEB-0644","OBJECT_ID":"2023-029N","EPOCH":"2026-03-25T09:24:09.775584","MEAN_MOTION":13.19725571,"ECCENTRICITY":0.00021242,"INCLINATION":87.9195,"RA_OF_ASC_NODE":321.6878,"ARG_OF_PERICENTER":82.7873,"MEAN_ANOMALY":277.3501,"EPHEMERIS_TYPE":0,"CLASSIFICATION_TYPE":"U","NORAD_CAT_ID":55808,"ELEMENT_SET_NO":999,"REV_AT_EPOCH":14785,"BSTAR":7.0417394e-5,"MEAN_MOTION_DOT":4.1e-7,"MEAN_MOTION_DDOT":0}]
